{
    "links": {
        "self": "http://www.neowsapp.com/rest/v1/neo/3772393?api_key=iIulBulltgU6a56xZRHN4H3l9WmuAYTsLGpBGhQ2"
    },
    "id": "3772393",
    "neo_reference_id": "3772393",
    "name": "(2017 FW64)",
    "designation": "2017 FW64",
    "nasa_jpl_url": "http://ssd.jpl.nasa.gov/sbdb.cgi?sstr=3772393",
    "absolute_magnitude_h": 20.5,
    "estimated_diameter": {
        "kilometers": {
            "estimated_diameter_min": 0.2111324448,
            "estimated_diameter_max": 0.4721064988
        },
        "meters": {
            "estimated_diameter_min": 211.1324447897,
            "estimated_diameter_max": 472.1064988055
        },
        "miles": {
            "estimated_diameter_min": 0.1311915784,
            "estimated_diameter_max": 0.2933532873
        },
        "feet": {
            "estimated_diameter_min": 692.6917701639,
            "estimated_diameter_max": 1548.9058855411
        }
    },
    "is_potentially_hazardous_asteroid": false,
    "close_approach_data": [
        {
            "close_approach_date": "1987-03-30",
            "close_approach_date_full": "1987-Mar-30 11:05",
            "epoch_date_close_approach": 544100700000,
            "relative_velocity": {
                "kilometers_per_second": "19.5066861845",
                "kilometers_per_hour": "70224.0702641928",
                "miles_per_hour": "43634.5063261036"
            },
            "miss_distance": {
                "astronomical": "0.3496993598",
                "lunar": "136.0330509622",
                "kilometers": "52314279.366443626",
                "miles": "32506585.8478929988"
            },
            "orbiting_body": "Earth"
        },
        {
            "close_approach_date": "2017-03-25",
            "close_approach_date_full": "2017-Mar-25 09:03",
            "epoch_date_close_approach": 1490432580000,
            "relative_velocity": {
                "kilometers_per_second": "21.3296816751",
                "kilometers_per_hour": "76786.854030513",
                "miles_per_hour": "47712.3649391263"
            },
            "miss_distance": {
                "astronomical": "0.3181119369",
                "lunar": "123.7455434541",
                "kilometers": "47588868.181814403",
                "miles": "29570351.4927606414"
            },
            "orbiting_body": "Earth"
        },
        {
            "close_approach_date": "2023-02-08",
            "close_approach_date_full": "2023-Feb-08 05:32",
            "epoch_date_close_approach": 1675834320000,
            "relative_velocity": {
                "kilometers_per_second": "9.3228349168",
                "kilometers_per_hour": "33562.2057003045",
                "miles_per_hour": "20854.2494252808"
            },
            "miss_distance": {
                "astronomical": "1.282541886",
                "lunar": "498.908793654",
                "kilometers": "191865534.33138282",
                "miles": "119219714.741890116"
            },
            "orbiting_body": "Juptr"
        },
        {
            "close_approach_date": "2047-03-23",
            "close_approach_date_full": "2047-Mar-23 08:25",
            "epoch_date_close_approach": 2436942300000,
            "relative_velocity": {
                "kilometers_per_second": "22.5263007976",
                "kilometers_per_hour": "81094.6828712311",
                "miles_per_hour": "50389.0822540714"
            },
            "miss_distance": {
                "astronomical": "0.4129957786",
                "lunar": "160.6553578754",
                "kilometers": "61783288.797551582",
                "miles": "38390355.4743605516"
            },
            "orbiting_body": "Earth"
        }
    ],
    "orbital_data": {
        "orbit_id": "17",
        "orbit_determination_date": "2017-06-18 06:17:01",
        "first_observation_date": "2017-03-21",
        "last_observation_date": "2017-06-16",
        "data_arc_in_days": 87,
        "observations_used": 91,
        "orbit_uncertainty": "6",
        "minimum_orbit_intersection": ".290032",
        "jupiter_tisserand_invariant": "2.943",
        "epoch_osculation": "2459000.5",
        "eccentricity": ".5286513048336857",
        "semi_major_axis": "2.628987669408892",
        "inclination": "37.00366034078188",
        "ascending_node_longitude": "181.2488069891568",
        "orbital_period": "1556.973606707359",
        "perihelion_distance": "1.239169907584211",
        "perihelion_argument": "30.62745919748389",
        "aphelion_distance": "4.018805431233573",
        "perihelion_time": "2459416.325330556322",
        "mean_anomaly": "263.8537850896195",
        "mean_motion": ".231217792292136",
        "equinox": "J2000",
        "orbit_class": {
            "orbit_class_type": "AMO",
            "orbit_class_description": "Near-Earth asteroid orbits similar to that of 1221 Amor",
            "orbit_class_range": "1.017 AU < q (perihelion) < 1.3 AU"
        }
    },
    "is_sentry_object": false
}